{
  "type": "FeatureCollection",
  "features": [
    {
      "type": "Feature",
      "properties": {
        "norad_id": 65729,
        "name": "DRAGONFLY",
        "group": "stations",
        "lat": 47.18155228797572,
        "lon": -76.12212331546479,
        "alt_km": 355.8478110101332,
        "timestamp": "2025-12-07T11:27:48.758322+00:00",
        "meta_object_name": "DRAGONFLY",
        "meta_object_id": "1998-067XH",
        "meta_epoch": "2025-12-06T18:11:12.021792",
        "meta_mean_motion": 15.69539731,
        "meta_eccentricity": 0.00064636,
        "meta_inclination": 51.6244,
        "meta_ra_of_asc_node": 166.34,
        "meta_arg_of_pericenter": 240.1975,
        "meta_mean_anomaly": 119.838,
        "meta_ephemeris_type": 0,
        "meta_classification_type": "U",
        "meta_norad_cat_id": 65729,
        "meta_element_set_no": 999,
        "meta_rev_at_epoch": 1222,
        "meta_bstar": 0.0016006166,
        "meta_mean_motion_dot": 0.00197078,
        "meta_mean_motion_ddot": 0,
        "tle_line1": "1 65729U 98067XH  25340.75777803  .00197078  00000+0  16006-2 0  9993",
        "tle_line2": "2 65729  51.6244 166.3400 0006463 240.1975 119.8380 15.69539731 12226"
      },
      "geometry": {
        "type": "Point",
        "coordinates": [
          -76.12212331546479,
          47.18155228797572
        ]
      }
    },
    {
      "type": "Feature",
      "properties": {
        "norad_id": 65731,
        "name": "1998-067XK",
        "group": "stations",
        "lat": -44.51659765752065,
        "lon": 35.08168093149441,
        "alt_km": 375.8753968536339,
        "timestamp": "2025-12-07T11:27:48.758333+00:00",
        "meta_object_name": "1998-067XK",
        "meta_object_id": "1998-067XK",
        "meta_epoch": "2025-12-06T19:05:46.784832",
        "meta_mean_motion": 15.6431708,
        "meta_eccentricity": 0.00056148,
        "meta_inclination": 51.6275,
        "meta_ra_of_asc_node": 167.356,
        "meta_arg_of_pericenter": 209.7044,
        "meta_mean_anomaly": 150.3633,
        "meta_ephemeris_type": 0,
        "meta_classification_type": "U",
        "meta_norad_cat_id": 65731,
        "meta_element_set_no": 999,
        "meta_rev_at_epoch": 1221,
        "meta_bstar": 0.001226721,
        "meta_mean_motion_dot": 0.00120927,
        "meta_mean_motion_ddot": 0,
        "tle_line1": "1 65731U 98067XK  25340.79568038  .00120927  00000+0  12267-2 0  9992",
        "tle_line2": "2 65731  51.6275 167.3560 0005614 209.7044 150.3633 15.64317080 12212"
      },
      "geometry": {
        "type": "Point",
        "coordinates": [
          35.08168093149441,
          -44.51659765752065
        ]
      }
    },
    {
      "type": "Feature",
      "properties": {
        "norad_id": 65732,
        "name": "RSP-03",
        "group": "stations",
        "lat": 11.725009820713355,
        "lon": -26.15913910220936,
        "alt_km": 363.89510869558217,
        "timestamp": "2025-12-07T11:27:48.758343+00:00",
        "meta_object_name": "RSP-03",
        "meta_object_id": "1998-067XL",
        "meta_epoch": "2025-12-06T19:27:20.778624",
        "meta_mean_motion": 15.66782346,
        "meta_eccentricity": 0.00064361,
        "meta_inclination": 51.6255,
        "meta_ra_of_asc_node": 166.6987,
        "meta_arg_of_pericenter": 212.9717,
        "meta_mean_anomaly": 147.0878,
        "meta_ephemeris_type": 0,
        "meta_classification_type": "U",
        "meta_norad_cat_id": 65732,
        "meta_element_set_no": 999,
        "meta_rev_at_epoch": 1223,
        "meta_bstar": 0.0014177456,
        "meta_mean_motion_dot": 0.00155052,
        "meta_mean_motion_ddot": 0,
        "tle_line1": "1 65732U 98067XL  25340.81065716  .00155052  00000+0  14177-2 0  9990",
        "tle_line2": "2 65732  51.6255 166.6987 0006436 212.9717 147.0878 15.66782346 12231"
      },
      "geometry": {
        "type": "Point",
        "coordinates": [
          -26.15913910220936,
          11.725009820713355
        ]
      }
    },
    {
      "type": "Feature",
      "properties": {
        "norad_id": 65733,
        "name": "GHS-01",
        "group": "stations",
        "lat": -19.628866640583965,
        "lon": 145.78736649376572,
        "alt_km": 355.54827907440267,
        "timestamp": "2025-12-07T11:27:48.758353+00:00",
        "meta_object_name": "GHS-01",
        "meta_object_id": "1998-067XM",
        "meta_epoch": "2025-12-06T18:47:20.289408",
        "meta_mean_motion": 15.71874043,
        "meta_eccentricity": 0.00068988,
        "meta_inclination": 51.6272,
        "meta_ra_of_asc_node": 165.7632,
        "meta_arg_of_pericenter": 241.192,
        "meta_mean_anomaly": 118.8385,
        "meta_ephemeris_type": 0,
        "meta_classification_type": "U",
        "meta_norad_cat_id": 65733,
        "meta_element_set_no": 999,
        "meta_rev_at_epoch": 1224,
        "meta_bstar": 0.00174144,
        "meta_mean_motion_dot": 0.00237688,
        "meta_mean_motion_ddot": 0,
        "tle_line1": "1 65733U 98067XM  25340.78287372  .00237688  00000+0  17414-2 0  9994",
        "tle_line2": "2 65733  51.6272 165.7632 0006898 241.1920 118.8385 15.71874043 12242"
      },
      "geometry": {
        "type": "Point",
        "coordinates": [
          145.78736649376572,
          -19.628866640583965
        ]
      }
    },
    {
      "type": "Feature",
      "properties": {
        "norad_id": 65941,
        "name": "YOTSUBA-KULOVER",
        "group": "stations",
        "lat": 42.73753252225416,
        "lon": -60.66034777740596,
        "alt_km": 385.76742047370317,
        "timestamp": "2025-12-07T11:27:48.758363+00:00",
        "meta_object_name": "YOTSUBA-KULOVER",
        "meta_object_id": "1998-067XN",
        "meta_epoch": "2025-12-06T19:33:42.622560",
        "meta_mean_motion": 15.58441577,
        "meta_eccentricity": 0.00019681,
        "meta_inclination": 51.6278,
        "meta_ra_of_asc_node": 169.7328,
        "meta_arg_of_pericenter": 197.1439,
        "meta_mean_anomaly": 162.9487,
        "meta_ephemeris_type": 0,
        "meta_classification_type": "U",
        "meta_norad_cat_id": 65941,
        "meta_element_set_no": 999,
        "meta_rev_at_epoch": 893,
        "meta_bstar": 0.0011638994,
        "meta_mean_motion_dot": 0.00090951,
        "meta_mean_motion_ddot": 0,
        "tle_line1": "1 65941U 98067XN  25340.81507665  .00090951  00000+0  11639-2 0  9992",
        "tle_line2": "2 65941  51.6278 169.7328 0001968 197.1439 162.9487 15.58441577  8934"
      },
      "geometry": {
        "type": "Point",
        "coordinates": [
          -60.66034777740596,
          42.73753252225416
        ]
      }
    },
    {
      "type": "Feature",
      "properties": {
        "norad_id": 65942,
        "name": "BOTAN",
        "group": "stations",
        "lat": 21.82749566108298,
        "lon": -175.64903163347026,
        "alt_km": 383.4404009173877,
        "timestamp": "2025-12-07T11:27:48.758373+00:00",
        "meta_object_name": "BOTAN",
        "meta_object_id": "1998-067XP",
        "meta_epoch": "2025-12-06T18:26:46.199328",
        "meta_mean_motion": 15.61316825,
        "meta_eccentricity": 0.00039822,
        "meta_inclination": 51.627,
        "meta_ra_of_asc_node": 169.4226,
        "meta_arg_of_pericenter": 191.5132,
        "meta_mean_anomaly": 168.5771,
        "meta_ephemeris_type": 0,
        "meta_classification_type": "U",
        "meta_norad_cat_id": 65942,
        "meta_element_set_no": 999,
        "meta_rev_at_epoch": 893,
        "meta_bstar": 0.001480583,
        "meta_mean_motion_dot": 0.00129965,
        "meta_mean_motion_ddot": 0,
        "tle_line1": "1 65942U 98067XP  25340.76859027  .00129965  00000+0  14806-2 0  9996",
        "tle_line2": "2 65942  51.6270 169.4226 0003982 191.5132 168.5771 15.61316825  8936"
      },
      "geometry": {
        "type": "Point",
        "coordinates": [
          -175.64903163347026,
          21.82749566108298
        ]
      }
    },
    {
      "type": "Feature",
      "properties": {
        "norad_id": 65943,
        "name": "E-KAGAKU-1",
        "group": "stations",
        "lat": 42.593796199461366,
        "lon": -60.346860608119755,
        "alt_km": 384.93153499034634,
        "timestamp": "2025-12-07T11:27:48.758383+00:00",
        "meta_object_name": "E-KAGAKU-1",
        "meta_object_id": "1998-067XQ",
        "meta_epoch": "2025-12-06T18:01:16.505472",
        "meta_mean_motion": 15.5838918,
        "meta_eccentricity": 0.00030246,
        "meta_inclination": 51.6289,
        "meta_ra_of_asc_node": 170.0575,
        "meta_arg_of_pericenter": 170.5434,
        "meta_mean_anomaly": 189.5616,
        "meta_ephemeris_type": 0,
        "meta_classification_type": "U",
        "meta_norad_cat_id": 65943,
        "meta_element_set_no": 999,
        "meta_rev_at_epoch": 892,
        "meta_bstar": 0.0011230983,
        "meta_mean_motion_dot": 0.00087541,
        "meta_mean_motion_ddot": 0,
        "tle_line1": "1 65943U 98067XQ  25340.75088548  .00087541  00000+0  11231-2 0  9990",
        "tle_line2": "2 65943  51.6289 170.0575 0003024 170.5434 189.5616 15.58389180  8921"
      },
      "geometry": {
        "type": "Point",
        "coordinates": [
          -60.346860608119755,
          42.593796199461366
        ]
      }
    }
  ]
}